{
"type": "FeatureCollection",
"name": "github_klar_geometri",
"crs": { "type": "name", "properties": { "name": "urn:ogc:def:crs:OGC:1.3:CRS84" } },
"features": [
{ "type": "Feature", "properties": { }, "geometry": { "type": "Polygon", "coordinates": [ [ [ 12.002024643355011, 55.682462428597624 ], [ 12.001997969156186, 55.682508839990504 ], [ 12.001942041673384, 55.682518209638104 ], [ 12.001880163387487, 55.682522600634229 ], [ 12.001782031593629, 55.682508640328152 ], [ 12.001639858126616, 55.682497195985626 ], [ 12.001573642912271, 55.682480296971562 ], [ 12.001546118382015, 55.682459574472119 ], [ 12.001511622106827, 55.682408097276031 ], [ 12.001466643250666, 55.682358944231972 ], [ 12.001413018891567, 55.682311171390452 ], [ 12.001367259302164, 55.682264284890927 ], [ 12.001294987512647, 55.682162129820242 ], [ 12.001277606591747, 55.682120122711673 ], [ 12.001265180569598, 55.682043113543656 ], [ 12.001272845875965, 55.682018563361993 ], [ 12.001284793795426, 55.681966848786509 ], [ 12.001283700122356, 55.681886146196078 ], [ 12.001294019839193, 55.681829796703241 ], [ 12.001326320785966, 55.681742613425179 ], [ 12.001346826035361, 55.681661382379012 ], [ 12.001352219897949, 55.681590589750037 ], [ 12.001368846474813, 55.68152518593093 ], [ 12.001488724922895, 55.68138488704448 ], [ 12.001605523735959, 55.681196117885584 ], [ 12.00159122229539, 55.681109175830436 ], [ 12.001535190514367, 55.681013365960879 ], [ 12.001533901911067, 55.680982022715938 ], [ 12.001577730631825, 55.680902018901634 ], [ 12.001614086894715, 55.680871912101189 ], [ 12.001672295491362, 55.680846664516473 ], [ 12.001740279145146, 55.680828549429982 ], [ 12.00179873901809, 55.680816960294401 ], [ 12.001889192002158, 55.680795148813594 ], [ 12.001964173113302, 55.680766613866581 ], [ 12.00204298985139, 55.680725848627247 ], [ 12.002102652681112, 55.680684293507014 ], [ 12.002189743702159, 55.68061033270304 ], [ 12.002361164093118, 55.68048243608726 ], [ 12.002455194782176, 55.680428442628163 ], [ 12.002494896986306, 55.680404636490614 ], [ 12.002803998079596, 55.680244241886015 ], [ 12.002910812717278, 55.680199284628266 ], [ 12.002977870983297, 55.680175348042361 ], [ 12.003102920589587, 55.680156554349288 ], [ 12.003201587959031, 55.680160971111079 ], [ 12.003299011324026, 55.68016991320745 ], [ 12.003407665221827, 55.680192514624274 ], [ 12.003490826024599, 55.680218796710925 ], [ 12.003568438178801, 55.6802619358429 ], [ 12.003612288978079, 55.680294304613234 ], [ 12.003687855467899, 55.680346034180729 ], [ 12.003767755937247, 55.680379587850531 ], [ 12.003819908794288, 55.680430991674726 ], [ 12.003853769990169, 55.680486619162387 ], [ 12.003869179132373, 55.680552677296298 ], [ 12.003868629956127, 55.68062434036176 ], [ 12.003813067591697, 55.680874901358337 ], [ 12.003795385903004, 55.680924419260194 ], [ 12.003814304030703, 55.680957398490555 ], [ 12.003845068380771, 55.68097264720334 ], [ 12.003854375196729, 55.681004782993654 ], [ 12.003845973193544, 55.681028002916165 ], [ 12.003812759365985, 55.681061719314265 ], [ 12.00377066722411, 55.681089629861418 ], [ 12.003729430479483, 55.681176403380064 ], [ 12.00369869982562, 55.681219678146952 ], [ 12.003681636570276, 55.681252369746005 ], [ 12.003653364758883, 55.68129243782311 ], [ 12.003589964266807, 55.681345412511888 ], [ 12.003513277093397, 55.681376597299234 ], [ 12.003420373738724, 55.681393435614844 ], [ 12.003362743593097, 55.681399251659997 ], [ 12.003266438330007, 55.681407003437215 ], [ 12.003176972044933, 55.681429241263857 ], [ 12.00307163825695, 55.681476949326985 ], [ 12.002992889940622, 55.681518612534475 ], [ 12.002910196378906, 55.681569002580773 ], [ 12.002857634983448, 55.681597348877105 ], [ 12.002777593498411, 55.68166987898617 ], [ 12.002718298098802, 55.681728686052473 ], [ 12.002642953484912, 55.681793999067665 ], [ 12.002569782727262, 55.681837862840389 ], [ 12.002495804536993, 55.681879498852581 ], [ 12.002330034397003, 55.681956644090043 ], [ 12.00226965780382, 55.682001363229034 ], [ 12.002218899556585, 55.682047015627987 ], [ 12.002174063827146, 55.682099355390328 ], [ 12.002142457078191, 55.682131233988727 ], [ 12.002128497336459, 55.682171221117429 ], [ 12.002108619758504, 55.682235715718726 ], [ 12.002088682589228, 55.68229113196756 ], [ 12.002072374857164, 55.682331626044281 ], [ 12.002058505006348, 55.682370711971636 ], [ 12.002036787495296, 55.682421586925798 ], [ 12.002024643355011, 55.682462428597624 ] ] ] } }
]
}
